$$SOE
2459580.500000000, A.D. 2022-Jan-01 00:00:00.0000, 3.941975923285019E+08, 3.788249875342653E+07, -9.829014251772940E+06,
2459587.500000000, A.D. 2022-Jan-08 00:00:00.0000, 3.942422586362442E+08, 4.800295815850682E+07, -1.050046572341169E+07,
2459594.500000000, A.D. 2022-Jan-15 00:00:00.0000, 3.939818403709270E+08, 5.808610391093279E+07, -1.116379040392058E+07,
2459601.500000000, A.D. 2022-Jan-22 00:00:00.0000, 3.934190695359119E+08, 6.812450455012988E+07, -1.181854644025927E+07,
2459608.500000000, A.D. 2022-Jan-29 00:00:00.0000, 3.925567584388174E+08, 7.811086923320991E+07, -1.246430251302349E+07,
2459615.500000000, A.D. 2022-Feb-05 00:00:00.0000, 3.913977937487515E+08, 8.803804112941505E+07, -1.310063722703305E+07,
2459622.500000000, A.D. 2022-Feb-12 00:00:00.0000, 3.899451331759155E+08, 9.789898987612803E+07, -1.372713880395086E+07,
2459629.500000000, A.D. 2022-Feb-19 00:00:00.0000, 3.882018034226173E+08, 1.076868054713593E+08, -1.434340476184433E+07,
2459636.500000000, A.D. 2022-Feb-26 00:00:00.0000, 3.861708980725281E+08, 1.173946928851599E+08, -1.494904152046695E+07,
2459643.500000000, A.D. 2022-Mar-05 00:00:00.0000, 3.838555755579850E+08, 1.270159667769596E+08, -1.554366399738089E+07,
2459650.500000000, A.D. 2022-Mar-12 00:00:00.0000, 3.812590574090077E+08, 1.365440462560235E+08, -1.612689522077858E+07,
2459657.500000000, A.D. 2022-Mar-19 00:00:00.0000, 3.783846268382714E+08, 1.459724497154157E+08, -1.669836596336782E+07,
2459664.500000000, A.D. 2022-Mar-26 00:00:00.0000, 3.752356276690967E+08, 1.552947897355353E+08, -1.725771439996910E+07,
2459671.500000000, A.D. 2022-Apr-02 00:00:00.0000, 3.718154636606206E+08, 1.645047680031744E+08, -1.780458579970759E+07,
2459678.500000000, A.D. 2022-Apr-09 00:00:00.0000, 3.681275984904495E+08, 1.735961702520574E+08, -1.833863227751856E+07,
2459685.500000000, A.D. 2022-Apr-16 00:00:00.0000, 3.641755567403268E+08, 1.825628618782454E+08, -1.885951258447629E+07,
2459692.500000000, A.D. 2022-Apr-23 00:00:00.0000, 3.599629246020924E+08, 1.913987853144259E+08, -1.936689173172061E+07,
2459699.500000000, A.D. 2022-Apr-30 00:00:00.0000, 3.554933484242390E+08, 2.000979569220327E+08, -1.986044045948607E+07,
2459706.500000000, A.D. 2022-May-07 00:00:00.0000, 3.507705341585013E+08, 2.086544614295882E+08, -2.033983499375194E+07,
2459713.500000000, A.D. 2022-May-14 00:00:00.0000, 3.457982490886679E+08, 2.170624469537587E+08, -2.080475696990193E+07,
2459720.500000000, A.D. 2022-May-21 00:00:00.0000, 3.405803238022122E+08, 2.253161213624201E+08, -2.125489327488160E+07,
2459727.500000000, A.D. 2022-May-28 00:00:00.0000, 3.351206539204357E+08, 2.334097490230686E+08, -2.168993584215725E+07,
2459734.500000000, A.D. 2022-Jun-04 00:00:00.0000, 3.294232018603578E+08, 2.413376476260543E+08, -2.210958145046066E+07,
2459741.500000000, A.D. 2022-Jun-11 00:00:00.0000, 3.234919987700726E+08, 2.490941850874630E+08, -2.251353153947790E+07,
2459748.500000000, A.D. 2022-Jun-18 00:00:00.0000, 3.173311466742793E+08, 2.566737765480759E+08, -2.290149204506941E+07,
2459755.500000000, A.D. 2022-Jun-25 00:00:00.0000, 3.109448208585208E+08, 2.640708814388215E+08, -2.327317325962749E+07,
2459762.500000000, A.D. 2022-Jul-02 00:00:00.0000, 3.043372726264378E+08, 2.712800005507224E+08, -2.362828973552206E+07,
2459769.500000000, A.D. 2022-Jul-09 00:00:00.0000, 2.975128328216395E+08, 2.782956732893654E+08, -2.396656025337557E+07,
2459776.500000000, A.D. 2022-Jul-16 00:00:00.0000, 2.904759160592337E+08, 2.851124761970154E+08, -2.428770776191594E+07,
2459783.500000000, A.D. 2022-Jul-23 00:00:00.0000, 2.832310234632438E+08, 2.917250228200760E+08, -2.459145908080268E+07,
2459790.500000000, A.D. 2022-Jul-30 00:00:00.0000, 2.757827439896371E+08, 2.981279615767923E+08, -2.487754464751212E+07,
2459797.500000000, A.D. 2022-Aug-06 00:00:00.0000, 2.681357579372081E+08, 3.043159722853777E+08, -2.514569858595984E+07,
2459804.500000000, A.D. 2022-Aug-13 00:00:00.0000, 2.602948418265038E+08, 3.102837641164421E+08, -2.539565879684781E+07,
2459811.500000000, A.D. 2022-Aug-20 00:00:00.0000, 2.522648730811861E+08, 3.160260744771473E+08, -2.562716696744770E+07,
2459818.500000000, A.D. 2022-Aug-27 00:00:00.0000, 2.440508345854691E+08, 3.215376681117536E+08, -2.583996856723815E+07,
2459825.500000000, A.D. 2022-Sep-03 00:00:00.0000, 2.356578193706650E+08, 3.268133363188365E+08, -2.603381286203028E+07,
2459832.500000000, A.D. 2022-Sep-10 00:00:00.0000, 2.270910355248897E+08, 3.318478963205121E+08, -2.620845295372158E+07,
2459839.500000000, A.D. 2022-Sep-17 00:00:00.0000, 2.183558113585465E+08, 3.366361907948804E+08, -2.636364584940408E+07,
2459846.500000000, A.D. 2022-Sep-24 00:00:00.0000, 2.094576008889396E+08, 3.411730875357384E+08, -2.649915257054324E+07,
2459853.500000000, A.D. 2022-Oct-01 00:00:00.0000, 2.004019898870495E+08, 3.454534792346421E+08, -2.661473832732207E+07,
2459860.500000000, A.D. 2022-Oct-08 00:00:00.0000, 1.911947028978541E+08, 3.494722839273735E+08, -2.671017275454459E+07,
2459867.500000000, A.D. 2022-Oct-15 00:00:00.0000, 1.818416103073169E+08, 3.532244473235955E+08, -2.678523002760018E+07,
2459874.500000000, A.D. 2022-Oct-22 00:00:00.0000, 1.723487332750075E+08, 3.567049453542169E+08, -2.683968879715347E+07,
2459881.500000000, A.D. 2022-Oct-29 00:00:00.0000, 1.627222490297301E+08, 3.599087843706831E+08, -2.687333238520467E+07,
2459888.500000000, A.D. 2022-Nov-05 00:00:00.0000, 1.529684986331762E+08, 3.628310017686299E+08, -2.688594921412782E+07,
2459895.500000000, A.D. 2022-Nov-12 00:00:00.0000, 1.430939952500259E+08, 3.654666683305173E+08, -2.687733318735614E+07,
2459902.500000000, A.D. 2022-Nov-19 00:00:00.0000, 1.331054322050916E+08, 3.678108913632243E+08, -2.684728403576514E+07,
2459909.500000000, A.D. 2022-Nov-26 00:00:00.0000, 1.230096910892017E+08, 3.698588182669191E+08, -2.679560768853313E+07,
2459916.500000000, A.D. 2022-Dec-03 00:00:00.0000, 1.128138500781630E+08, 3.716056405594020E+08, -2.672211668694550E+07,
2459923.500000000, A.D. 2022-Dec-10 00:00:00.0000, 1.025251925062611E+08, 3.730465984123366E+08, -2.662663064601573E+07,
2459930.500000000, A.D. 2022-Dec-17 00:00:00.0000, 9.215121571171384E+07, 3.741769857148733E+08, -2.650897677045679E+07,
2459937.500000000, A.D. 2022-Dec-24 00:00:00.0000, 8.169964025251669E+07, 3.749921556433244E+08, -2.636899044282913E+07,
2459944.500000000, A.D. 2022-Dec-31 00:00:00.0000, 7.117841983591139E+07, 3.754875268943849E+08, -2.620651591074747E+07,
2459951.500000000, A.D. 2023-Jan-07 00:00:00.0000, 6.059575206781725E+07, 3.756585916009203E+08, -2.602140700946300E+07,
2459958.500000000, A.D. 2023-Jan-14 00:00:00.0000, 4.996008803866497E+07, 3.755009254861334E+08, -2.581352770298548E+07,
2459965.500000000, A.D. 2023-Jan-21 00:00:00.0000, 3.928014007767320E+07, 3.750101971396150E+08, -2.558275264677343E+07,
2459972.500000000, A.D. 2023-Jan-28 00:00:00.0000, 2.856489131154126E+07, 3.741821762863225E+08, -2.532896812781672E+07,
2459979.500000000, A.D. 2023-Feb-04 00:00:00.0000, 1.782360678771350E+07, 3.730127441501381E+08, -2.505207312060526E+07,
2459986.500000000, A.D. 2023-Feb-11 00:00:00.0000, 7.065844329261258E+06, 3.714979057884291E+08, -2.475198031416805E+07,
2459993.500000000, A.D. 2023-Feb-18 00:00:00.0000, -3.698534990370614E+06, 3.696338036472322E+08, -2.442861717520635E+07,
2460000.500000000, A.D. 2023-Feb-25 00:00:00.0000, -1.445935654741813E+07, 3.674167322533729E+08, -2.408192708850837E+07,
2460007.500000000, A.D. 2023-Mar-04 00:00:00.0000, -2.520612200713291E+07, 3.648431541445835E+08, -2.371187058658136E+07,
2460014.500000000, A.D. 2023-Mar-11 00:00:00.0000, -3.592799935052530E+07, 3.619097171237654E+08, -2.331842667531565E+07,
2460021.500000000, A.D. 2023-Mar-18 00:00:00.0000, -4.661381312885043E+07, 3.586132728758944E+08, -2.290159426828393E+07,
2460028.500000000, A.D. 2023-Mar-25 00:00:00.0000, -5.725203484134155E+07, 3.549508969885684E+08, -2.246139375610848E+07,
2460035.500000000, A.D. 2023-Apr-01 00:00:00.0000, -6.783077312416929E+07, 3.509199108556407E+08, -2.199786872087573E+07,
2460042.500000000, A.D. 2023-Apr-08 00:00:00.0000, -7.833776449573348E+07, 3.465179067729666E+08, -2.151108764158966E+07,
2460049.500000000, A.D. 2023-Apr-15 00:00:00.0000, -8.876036714241922E+07, 3.417427752007444E+08, -2.100114546859741E+07,
2460056.500000000, A.D. 2023-Apr-22 00:00:00.0000, -9.908555610575873E+07, 3.365927312115749E+08, -2.046816548225237E+07,
2460063.500000000, A.D. 2023-Apr-29 00:00:00.0000, -1.092999173363423E+08, 3.310663424545774E+08, -1.991230150370589E+07,
2460070.500000000, A.D. 2023-May-06 00:00:00.0000, -1.193896425891369E+08, 3.251625605004570E+08, -1.933374015427393E+07,
2460077.500000000, A.D. 2023-May-13 00:00:00.0000, -1.293405263658338E+08, 3.188807547395763E+08, -1.873270314795473E+07,
2460084.500000000, A.D. 2023-May-20 00:00:00.0000, -1.391379649242136E+08, 3.122207483870923E+08, -1.810944967719081E+07,
2460091.500000000, A.D. 2023-May-27 00:00:00.0000, -1.487669574426076E+08, 3.051828565917355E+08, -1.746427890858065E+07,
2460098.500000000, A.D. 2023-Jun-03 00:00:00.0000, -1.582121095910693E+08, 2.977679266781138E+08, -1.679753258626261E+07,
2460105.500000000, A.D. 2023-Jun-10 00:00:00.0000, -1.674576398222594E+08, 2.899773804863473E+08, -1.610959773861665E+07,
2460112.500000000, A.D. 2023-Jun-17 00:00:00.0000, -1.764873886567764E+08, 2.818132586949614E+08, -1.540090949113402E+07,
2460119.500000000, A.D. 2023-Jun-24 00:00:00.0000, -1.852848310326833E+08, 2.732782670909042E+08, -1.467195399702804E+07,
2460126.500000000, A.D. 2023-Jul-01 00:00:00.0000, -1.938330918810790E+08, 2.643758254787507E+08, -1.392327142453380E+07,
2460133.500000000, A.D. 2023-Jul-08 00:00:00.0000, -2.021149670412218E+08, 2.551101198669231E+08, -1.315545876045163E+07,
2460140.500000000, A.D. 2023-Jul-15 00:00:00.0000, -2.101129512460000E+08, 2.454861548628453E+08, -1.236917252062455E+07,
2460147.500000000, A.D. 2023-Jul-22 00:00:00.0000, -2.178092701136295E+08, 2.355098049275233E+08, -1.156513174427088E+07,
$$EOE